NORAD_CAT_ID,OBJECT_NAME,OBJECT_TYPE,EPOCH,MEAN_MOTION,ECCENTRICITY,INCLINATION,RA_OF_ASC_NODE,ARG_OF_PERICENTER,MEAN_ANOMALY,BSTAR,MEAN_MOTION_DOT,MEAN_MOTION_DDOT,TLE_LINE0,TLE_LINE1,TLE_LINE2,SEMIMAJOR_AXIS,PERIOD,APOGEE,PERIGEE,DECAYED
53633.0,STARLINK-4593,PAYLOAD,2024-06-07 20:50:17,15.0884951,0.0001281,53.2144,216.416,91.2599,268.854,0.0002256,3.305e-05,0.0,0 STARLINK-4593,1 53633U 22104AX  24159.86825572  .00003305  00000-0  22560-3 0  9992,2 53633  53.2144 216.4160 0001281  91.2599 268.8540 15.08849510 99303,6917.851,95.437,540.602,538.83,0.0
53633.0,STARLINK-4593,PAYLOAD,2024-06-08 11:08:45,15.08852916,0.0001379,53.2148,213.741,90.6709,269.4441,0.00020168,2.924e-05,0.0,0 STARLINK-4593,1 53633U 22104AX  24160.46441133  .00002924  00000-0  20168-3 0  9995,2 53633  53.2148 213.7410 0001379  90.6709 269.4441 15.08852916 99399,6917.841,95.437,540.66,538.752,0.0
53633.0,STARLINK-4593,PAYLOAD,2024-06-08 20:41:04,15.08838859,0.0001529,53.2142,211.9551,75.1657,284.9505,-5.2196e-05,-1.119e-05,0.0,0 STARLINK-4593,1 53633U 22104AX  24160.86185690 -.00001119  00000-0 -52196-4 0  9996,2 53633  53.2142 211.9551 0001529  75.1657 284.9505 15.08838859 98769,6917.884,95.438,540.807,538.691,0.0
53633.0,STARLINK-4593,PAYLOAD,2024-06-09 10:59:33,15.08832693,0.0001178,53.2152,209.2786,89.0722,271.0405,-5.808e-05,-1.212e-05,0.0,0 STARLINK-4593,1 53633U 22104AX  24161.45802205 -.00001212  00000-0 -58080-4 0  9992,2 53633  53.2152 209.2786 0001178  89.0722 271.0405 15.08832693 99540,6917.903,95.438,540.583,538.953,0.0
53633.0,STARLINK-4593,PAYLOAD,2024-06-09 20:31:52,15.08832499,0.0001207,53.215,207.4944,82.4896,277.6233,3.2738e-05,2.33e-06,0.0,0 STARLINK-4593,1 53633U 22104AX  24161.85546575  .00000233  00000-0  32738-4 0  9993,2 53633  53.2150 207.4944 0001207  82.4896 277.6233 15.08832499 98911,6917.903,95.438,540.603,538.933,0.0
53633.0,STARLINK-4593,PAYLOAD,2024-06-10 09:14:57,15.08844742,0.0001365,53.215,205.116,75.3928,284.7215,0.00052661,8.104e-05,0.0,0 STARLINK-4593,1 53633U 22104AX  24162.38538691  .00008104  00000-0  52661-3 0  9993,2 53633  53.2150 205.1160 0001365  75.3928 284.7215 15.08844742 99686,6917.866,95.437,540.675,538.787,0.0
53633.0,STARLINK-4593,PAYLOAD,2024-06-10 20:22:39,15.08851601,0.0001437,53.2143,203.0344,72.6496,287.4653,0.00068886,0.00010696,0.0,0 STARLINK-4593,1 53633U 22104AX  24162.84906695  .00010696  00000-0  68886-3 0  9992,2 53633  53.2143 203.0344 0001437  72.6496 287.4653 15.08851601 99069,6917.845,95.437,540.704,538.716,0.0
53633.0,STARLINK-4593,PAYLOAD,2024-06-11 09:05:44,15.08857622,0.0001479,53.2147,200.6554,74.818,285.2975,0.0005677,8.763e-05,0.0,0 STARLINK-4593,1 53633U 22104AX  24163.37898307  .00008763  00000-0  56770-3 0  9992,2 53633  53.2147 200.6554 0001479  74.8180 285.2975 15.08857622 99836,6917.827,95.436,540.715,538.668,0.0
53633.0,STARLINK-4593,PAYLOAD,2024-06-12 02:34:58,15.08843166,0.0001683,53.2159,197.3828,86.3478,273.7707,1.5287e-05,-4.5e-07,0.0,0 STARLINK-4593,1 53633U 22104AX  24164.10762435 -.00000045  00000-0  15287-4 0  9991,2 53633  53.2159 197.3828 0001683  86.3478 273.7707 15.08843166 99259,6917.871,95.437,540.9,538.571,0.0
53633.0,STARLINK-4593,PAYLOAD,2024-06-12 05:45:45,15.08838738,0.0001521,53.215,196.7885,80.3703,279.7461,-4.7617e-05,-1.046e-05,0.0,0 STARLINK-4593,1 53633U 22104AX  24164.24010560 -.00001046  00000-0 -47617-4 0  9996,2 53633  53.2150 196.7885 0001521  80.3703 279.7461 15.08838738 99962,6917.884,95.438,540.801,538.697,0.0
53633.0,STARLINK-4593,PAYLOAD,2024-06-12 08:56:31,15.08838171,0.0001494,53.2155,196.1936,82.7027,277.4135,-2.7316e-05,-7.23e-06,0.0,0 STARLINK-4593,1 53633U 22104AX  24164.37258705 -.00000723  00000-0 -27316-4 0  9990,2 53633  53.2155 196.1936 0001494  82.7027 277.4135 15.08838171 99988,6917.886,95.438,540.785,538.717,0.0
53633.0,STARLINK-4593,PAYLOAD,2024-06-13 08:47:18,15.08845337,0.0001413,53.2166,191.7342,82.0452,278.0701,5.0409e-05,5.15e-06,0.0,0 STARLINK-4593,1 53633U 22104AX  24165.36618222  .00000515  00000-0  50409-4 0  9990,2 53633  53.2166 191.7342 0001413  82.0452 278.0701 15.08845337 99447,6917.864,95.437,540.707,538.752,0.0
53633.0,STARLINK-4593,PAYLOAD,2024-06-14 08:38:05,15.08833587,0.0001397,53.2164,187.2752,84.2484,275.8667,7.5614e-05,9.15e-06,0.0,0 STARLINK-4593,1 53633U 22104AX  24166.35979097  .00000915  00000-0  75614-4 0  9999,2 53633  53.2164 187.2752 0001397  84.2484 275.8667 15.08833587100285,6917.9,95.438,540.731,538.799,0.0
53633.0,STARLINK-4593,PAYLOAD,2024-06-14 18:10:24,15.08838485,0.0001415,53.2164,185.4909,84.331,275.7843,8.6605e-05,1.091e-05,0.0,0 STARLINK-4593,1 53633U 22104AX  24166.75722859  .00001091  00000-0  86605-4 0  9993,2 53633  53.2164 185.4909 0001415  84.3310 275.7843 15.08838485100343,6917.885,95.438,540.729,538.771,0.0
53633.0,STARLINK-4593,PAYLOAD,2024-06-15 08:28:52,15.0884505,0.0001383,53.2159,182.8136,80.6295,279.4854,6.811e-05,7.96e-06,0.0,0 STARLINK-4593,1 53633U 22104AX  24167.35338439  .00000796  00000-0  68110-4 0  9999,2 53633  53.2159 182.8136 0001383  80.6295 279.4854 15.08845050100434,6917.865,95.437,540.687,538.773,0.0
53633.0,STARLINK-4593,PAYLOAD,2024-06-15 18:01:11,15.08839874,0.0001358,53.2157,181.0296,83.7022,276.4125,5.945e-05,6.58e-06,0.0,0 STARLINK-4593,1 53633U 22104AX  24167.75082766  .00000658  00000-0  59450-4 0  9996,2 53633  53.2157 181.0296 0001358  83.7022 276.4125 15.08839874100495,6917.881,95.438,540.685,538.806,0.0
53633.0,STARLINK-4593,PAYLOAD,2024-06-16 09:55:03,15.08835622,0.0001381,53.2158,178.0558,86.8232,273.2918,3.1173e-05,2.08e-06,0.0,0 STARLINK-4593,1 53633U 22104AX  24168.41323237  .00000208  00000-0  31173-4 0  9994,2 53633  53.2158 178.0558 0001381  86.8232 273.2918 15.08835622100599,6917.894,95.438,540.714,538.803,0.0
53633.0,STARLINK-4593,PAYLOAD,2024-06-16 17:51:58,15.08839306,0.0001383,53.2159,176.5693,88.2282,271.8869,4.7224e-05,4.64e-06,0.0,0 STARLINK-4593,1 53633U 22104AX  24168.74442998  .00000464  00000-0  47224-4 0  9994,2 53633  53.2159 176.5693 0001383  88.2282 271.8869 15.08839306100644,6917.883,95.438,540.704,538.791,0.0
53633.0,STARLINK-4593,PAYLOAD,2024-06-17 09:45:50,15.08839684,0.000136,53.2161,173.5959,86.7279,273.3868,1.9045e-05,1.5e-07,0.0,0 STARLINK-4593,1 53633U 22104AX  24169.40683111  .00000015  00000-0  19045-4 0  9994,2 53633  53.2161 173.5959 0001360  86.7279 273.3868 15.08839684100053,6917.881,95.438,540.687,538.806,0.0
53633.0,STARLINK-4593,PAYLOAD,2024-06-18 06:25:51,15.08835233,0.0001314,53.2163,169.7293,88.3867,271.7275,6.6941e-05,7.78e-06,0.0,0 STARLINK-4593,1 53633U 22104AX  24170.26795288  .00000778  00000-0  66941-4 0  9992,2 53633  53.2163 169.7293 0001314  88.3867 271.7275 15.08835233100873,6917.895,95.438,540.669,538.851,0.0
53633.0,STARLINK-4593,PAYLOAD,2024-06-18 17:33:32,15.0884142,0.0001314,53.2163,167.6482,86.3716,273.7427,6.9327e-05,8.16e-06,0.0,0 STARLINK-4593,1 53633U 22104AX  24170.73162904  .00000816  00000-0  69327-4 0  9991,2 53633  53.2163 167.6482 0001314  86.3716 273.7427 15.08841420100259,6917.876,95.437,540.65,538.832,0.0
53633.0,STARLINK-4593,PAYLOAD,2024-06-19 06:16:37,15.08844612,0.0001299,53.2166,165.2692,86.7847,273.3294,7.1319e-05,8.47e-06,0.0,0 STARLINK-4593,1 53633U 22104AX  24171.26154600  .00000847  00000-0  71319-4 0  9992,2 53633  53.2166 165.2692 0001299  86.7847 273.3294 15.08844612101020,6917.866,95.437,540.63,538.833,0.0
53633.0,STARLINK-4593,PAYLOAD,2024-06-20 04:32:02,15.08837808,0.0001322,53.2165,161.1059,86.6874,273.427,4.5801e-06,-2.15e-06,0.0,0 STARLINK-4593,1 53633U 22104AX  24172.18891262 -.00000215  00000-0  45801-5 0  9994,2 53633  53.2165 161.1059 0001322  86.6874 273.4270 15.08837808100479,6917.887,95.438,540.667,538.838,0.0
53633.0,STARLINK-4593,PAYLOAD,2024-06-20 09:18:11,15.08838342,0.0001333,53.2165,160.2138,86.6766,273.4378,7.6274e-06,-1.67e-06,0.0,0 STARLINK-4593,1 53633U 22104AX  24172.38763216 -.00000167  00000-0  76274-5 0  9997,2 53633  53.2165 160.2138 0001333  86.6766 273.4378 15.08838342101192,6917.885,95.438,540.673,538.828,0.0
53633.0,STARLINK-4593,PAYLOAD,2024-06-21 04:22:48,15.08842048,0.0001372,53.2168,156.6456,87.4756,272.6393,3.7588e-06,-2.28e-06,0.0,0 STARLINK-4593,1 53633U 22104AX  24173.18250967 -.00000228  00000-0  37588-5 0  9993,2 53633  53.2168 156.6456 0001372  87.4756 272.6393 15.08842048101318,6917.874,95.437,540.688,538.79,0.0
53633.0,STARLINK-4593,PAYLOAD,2024-06-21 21:52:03,15.08835795,0.0001358,53.2167,153.3753,84.9135,275.2012,2.4696e-05,1.05e-06,0.0,0 STARLINK-4593,1 53633U 22104AX  24173.91115393  .00000105  00000-0  24696-4 0  9995,2 53633  53.2167 153.3753 0001358  84.9135 275.2012 15.08835795101428,6917.893,95.438,540.698,538.819,0.0
53633.0,STARLINK-4593,PAYLOAD,2024-06-22 04:13:36,15.08833374,0.0001355,53.2169,152.1851,94.0666,266.0481,6.0289e-06,-1.92e-06,0.0,0 STARLINK-4593,1 53633U 22104AX  24174.17611651 -.00000192  00000-0  60289-5 0  9998,2 53633  53.2169 152.1851 0001355  94.0666 266.0481 15.08833374100770,6917.901,95.438,540.703,538.828,0.0
53633.0,STARLINK-4593,PAYLOAD,2024-06-22 07:24:22,15.08834031,0.0001339,53.2169,151.5903,89.7287,270.3858,9.4995e-06,-1.37e-06,0.0,0 STARLINK-4593,1 53633U 22104AX  24174.30859663 -.00000137  00000-0  94995-5 0  9990,2 53633  53.2169 151.5903 0001339  89.7287 270.3858 15.08834031101489,6917.899,95.438,540.69,538.837,0.0
53633.0,STARLINK-4593,PAYLOAD,2024-06-22 21:42:50,15.08836376,0.0001312,53.2166,148.9134,89.0515,271.0627,1.2921e-05,-8.2e-07,0.0,0 STARLINK-4593,1 53633U 22104AX  24174.90475674 -.00000082  00000-0  12921-4 0  9999,2 53633  53.2166 148.9134 0001312  89.0515 271.0627 15.08836376101576,6917.891,95.438,540.664,538.849,0.0
53633.0,STARLINK-4593,PAYLOAD,2024-06-23 07:15:09,15.08840508,0.0001356,53.2168,147.1296,92.2782,267.8365,7.0209e-05,8.3e-06,0.0,0 STARLINK-4593,1 53633U 22104AX  24175.30219256  .00000830  00000-0  70209-4 0  9999,2 53633  53.2168 147.1296 0001356  92.2782 267.8365 15.08840508100942,6917.879,95.438,540.682,538.806,0.0
